NORAD_CAT_ID,OBJECT_NAME,OBJECT_TYPE,EPOCH,MEAN_MOTION,ECCENTRICITY,INCLINATION,RA_OF_ASC_NODE,ARG_OF_PERICENTER,MEAN_ANOMALY,BSTAR,MEAN_MOTION_DOT,MEAN_MOTION_DDOT,TLE_LINE0,TLE_LINE1,TLE_LINE2,SEMIMAJOR_AXIS,PERIOD,APOGEE,PERIGEE,DECAYED
52358.0,STARLINK-3837,PAYLOAD,2024-07-18 18:52:49,15.08847623,0.0001264,53.2156,7.7032,81.4907,278.6228,0.0018949,0.00030004,0.0,0 STARLINK-3837,1 52358U 22045AD  24200.78668342  .00030004  00000-0  18949-2 0  9998,2 52358  53.2156   7.7032 0001264  81.4907 278.6228 15.08847623125375,6917.857,95.437,540.597,538.848,0.0
52358.0,STARLINK-3837,PAYLOAD,2024-07-19 10:46:40,15.08846055,0.0001472,53.2149,4.7307,79.1967,280.9191,0.00085397,0.00013331,0.0,0 STARLINK-3837,1 52358U 22045AD  24201.44908501  .00013331  00000-0  85397-3 0  9992,2 52358  53.2149   4.7307 0001472  79.1967 280.9191 15.08846055125474,6917.862,95.437,540.745,538.709,0.0
52358.0,STARLINK-3837,PAYLOAD,2024-07-19 17:08:13,15.08837362,0.0001253,53.2171,3.5393,99.4644,260.649,9.781e-05,1.269e-05,0.0,0 STARLINK-3837,1 52358U 22045AD  24201.71404493  .00001269  00000-0  97810-4 0  9994,2 52358  53.2171   3.5393 0001253  99.4644 260.6490 15.08837362125518,6917.888,95.438,540.62,538.887,0.0
52358.0,STARLINK-3837,PAYLOAD,2024-07-20 04:15:55,15.08853724,0.0001165,53.2175,1.4557,97.9504,262.1621,0.00051041,7.848e-05,0.0,0 STARLINK-3837,1 52358U 22045AD  24202.17771995  .00007848  00000-0  51041-3 0  9993,2 52358  53.2175   1.4557 0001165  97.9504 262.1621 15.08853724125581,6917.838,95.437,540.509,538.898,0.0
52358.0,STARLINK-3837,PAYLOAD,2024-07-20 16:59:00,15.08834907,0.0001033,53.2167,359.0805,67.3436,292.7665,-6.2265e-05,-1.278e-05,0.0,0 STARLINK-3837,1 52358U 22045AD  24202.70764303 -.00001278  00000-0 -62265-4 0  9991,2 52358  53.2167 359.0805 0001033  67.3436 292.7665 15.08834907125667,6917.896,95.438,540.476,539.046,0.0
52358.0,STARLINK-3837,PAYLOAD,2024-07-21 13:39:01,15.08840507,0.0001274,53.2167,355.2125,79.8571,280.2565,0.00038519,5.848e-05,0.0,0 STARLINK-3837,1 52358U 22045AD  24203.56876580  .00005848  00000-0  38519-3 0  9996,2 52358  53.2167 355.2125 0001274  79.8571 280.2565 15.08840507125793,6917.879,95.438,540.625,538.863,0.0
52358.0,STARLINK-3837,PAYLOAD,2024-07-21 16:49:47,15.08838147,0.0001209,53.2163,354.6179,77.6937,282.4191,0.00024972,3.688e-05,0.0,0 STARLINK-3837,1 52358U 22045AD  24203.70124642  .00003688  00000-0  24972-3 0  9995,2 52358  53.2163 354.6179 0001209  77.6937 282.4191 15.08838147125810,6917.886,95.438,540.587,538.915,0.0
52358.0,STARLINK-3837,PAYLOAD,2024-07-22 10:19:02,15.08836766,0.000125,53.2166,351.347,77.2152,282.898,0.0001123,1.5e-05,0.0,0 STARLINK-3837,1 52358U 22045AD  24204.42988870  .00001500  00000-0  11230-3 0  9990,2 52358  53.2166 351.3470 0001250  77.2152 282.8980 15.08836766125929,6917.89,95.438,540.62,538.891,0.0
52358.0,STARLINK-3837,PAYLOAD,2024-07-23 10:09:49,15.08840516,0.0001247,53.2171,346.8887,78.3664,281.7468,0.00016593,2.354e-05,0.0,0 STARLINK-3837,1 52358U 22045AD  24205.42348943  .00002354  00000-0  16593-3 0  9997,2 52358  53.2171 346.8887 0001247  78.3664 281.7468 15.08840516126076,6917.879,95.438,540.606,538.881,0.0
52358.0,STARLINK-3837,PAYLOAD,2024-07-23 16:31:22,15.08834307,0.0001306,53.2166,345.697,70.0667,290.0466,-2.017e-06,-3.2e-06,0.0,0 STARLINK-3837,1 52358U 22045AD  24205.68845173 -.00000320  00000-0 -20170-5 0  9993,2 52358  53.2166 345.6970 0001306  70.0667 290.0466 15.08834307126115,6917.898,95.438,540.666,538.859,0.0
52358.0,STARLINK-3837,PAYLOAD,2024-07-24 08:25:13,15.08835367,0.0001276,53.2169,342.7241,76.8975,283.216,3.4808e-06,-2.32e-06,0.0,0 STARLINK-3837,1 52358U 22045AD  24206.35085234 -.00000232  00000-0  34808-5 0  9996,2 52358  53.2169 342.7241 0001276  76.8975 283.2160 15.08835367126212,6917.895,95.438,540.642,538.877,0.0
52358.0,STARLINK-3837,PAYLOAD,2024-07-24 17:57:32,15.08836624,0.0001759,53.2135,340.9383,78.761,281.358,2.0101e-05,3.2e-07,0.0,0 STARLINK-3837,1 52358U 22045AD  24206.74829260  .00000032  00000-0  20101-4 0  9991,2 52358  53.2135 340.9383 0001759  78.7610 281.3580 15.08836624126273,6917.891,95.438,540.973,538.539,0.0
52358.0,STARLINK-3837,PAYLOAD,2024-07-25 17:48:19,15.08832045,0.0001614,53.2167,336.48,77.9679,282.1493,-2.1987e-05,-6.38e-06,0.0,0 STARLINK-3837,1 52358U 22045AD  24207.74189739 -.00000638  00000-0 -21987-4 0  9999,2 52358  53.2167 336.4800 0001614  77.9679 282.1493 15.08832045126420,6917.905,95.438,540.886,538.653,0.0
52358.0,STARLINK-3837,PAYLOAD,2024-07-26 01:45:15,15.08841309,0.0001073,53.217,334.9944,85.9433,274.1682,3.4501e-05,2.61e-06,0.0,0 STARLINK-3837,1 52358U 22045AD  24208.07309149  .00000261  00000-0  34501-4 0  9991,2 52358  53.2170 334.9944 0001073  85.9433 274.1682 15.08841309126471,6917.876,95.437,540.484,538.999,0.0
52358.0,STARLINK-3837,PAYLOAD,2024-07-26 08:06:47,15.08840481,0.0001505,53.2124,333.8031,85.0928,275.0236,9.8299e-05,1.277e-05,0.0,0 STARLINK-3837,1 52358U 22045AD  24208.33805379  .00001277  00000-0  98299-4 0  9998,2 52358  53.2124 333.8031 0001505  85.0928 275.0236 15.08840481126515,6917.879,95.438,540.785,538.703,0.0
52358.0,STARLINK-3837,PAYLOAD,2024-07-26 16:03:43,15.08842419,0.0001543,53.2135,332.3173,84.3479,275.7689,0.00012094,1.637e-05,0.0,0 STARLINK-3837,1 52358U 22045AD  24208.66925284  .00001637  00000-0  12094-3 0  9990,2 52358  53.2135 332.3173 0001543  84.3479 275.7689 15.08842419126560,6917.873,95.437,540.805,538.671,0.0
52358.0,STARLINK-3837,PAYLOAD,2024-07-27 01:36:01,15.08854947,9.27e-05,53.2174,330.5331,84.128,275.9818,0.00033799,5.098e-05,0.0,0 STARLINK-3837,1 52358U 22045AD  24209.06668437  .00005098  00000-0  33799-3 0  9999,2 52358  53.2174 330.5331 0000927  84.1280 275.9818 15.08854947126624,6917.835,95.437,540.341,539.058,0.0
52358.0,STARLINK-3837,PAYLOAD,2024-07-27 17:29:53,15.08825446,0.0001042,53.2178,327.5569,101.5234,258.5875,-0.00029654,-5.002e-05,0.0,0 STARLINK-3837,1 52358U 22045AD  24209.72909625 -.00005002  00000-0 -29654-3 0  9991,2 52358  53.2178 327.5569 0001042 101.5234 258.5875 15.08825446126722,6917.925,95.438,540.511,539.069,0.0
52358.0,STARLINK-3837,PAYLOAD,2024-07-28 01:26:50,15.08835939,0.000302,53.2118,326.0723,88.4928,271.641,0.00010903,1.447e-05,0.0,0 STARLINK-3837,1 52358U 22045AD  24210.06030301  .00001447  00000-0  10903-3 0  9990,2 52358  53.2118 326.0723 0003020  88.4928 271.6410 15.08835939126777,6917.893,95.438,541.847,537.669,0.0
52358.0,STARLINK-3837,PAYLOAD,2024-07-28 18:56:04,15.08850587,0.0001722,53.2188,322.8006,96.3572,263.7617,0.00064257,9.956e-05,0.0,0 STARLINK-3837,1 52358U 22045AD  24210.78893797  .00009956  00000-0  64257-3 0  9999,2 52358  53.2188 322.8006 0001722  96.3572 263.7617 15.08850587126881,6917.848,95.437,540.904,538.522,0.0
52358.0,STARLINK-3837,PAYLOAD,2024-07-29 14:00:41,15.08846546,0.0001206,53.2171,319.2356,91.9706,268.1424,0.00021578,3.149e-05,0.0,0 STARLINK-3837,1 52358U 22045AD  24211.58381560  .00003149  00000-0  21578-3 0  9995,2 52358  53.2171 319.2356 0001206  91.9706 268.1424 15.08846546127008,6917.86,95.437,540.56,538.891,0.0
52358.0,STARLINK-3837,PAYLOAD,2024-07-29 18:46:50,15.08854463,0.0001505,53.2177,318.3404,95.5009,264.6155,0.00041106,6.263e-05,0.0,0 STARLINK-3837,1 52358U 22045AD  24211.78253319  .00006263  00000-0  41106-3 0  9996,2 52358  53.2177 318.3404 0001505  95.5009 264.6155 15.08854463127038,6917.836,95.437,540.742,538.66,0.0
52358.0,STARLINK-3837,PAYLOAD,2024-07-30 13:51:28,15.08849039,0.0001547,53.2167,314.7747,88.6341,271.4828,0.00027051,4.021e-05,0.0,0 STARLINK-3837,1 52358U 22045AD  24212.57741394  .00004021  00000-0  27051-3 0  9992,2 52358  53.2167 314.7747 0001547  88.6341 271.4828 15.08849039127154,6917.853,95.437,540.788,538.648,0.0
52358.0,STARLINK-3837,PAYLOAD,2024-07-31 13:42:16,15.08824339,0.0001365,53.2165,310.3096,71.4306,288.6834,-3.8664e-05,-9.03e-06,0.0,0 STARLINK-3837,1 52358U 22045AD  24213.57102379 -.00000903  00000-0 -38664-4 0  9997,2 52358  53.2165 310.3096 0001365  71.4306 288.6834 15.08824339127300,6917.928,95.439,540.738,538.849,0.0
52358.0,STARLINK-3837,PAYLOAD,2024-07-31 23:14:35,15.08832712,0.000134,53.2179,308.526,82.8374,277.277,-1.2238e-07,-2.9e-06,0.0,0 STARLINK-3837,1 52358U 22045AD  24213.96846301 -.00000290  00000-0 -12238-6 0  9990,2 52358  53.2179 308.5260 0001340  82.8374 277.2770 15.08832712127364,6917.903,95.438,540.695,538.841,0.0
52358.0,STARLINK-3837,PAYLOAD,2024-08-01 11:57:40,15.08844276,0.0001238,53.2146,306.1467,64.8917,295.2204,0.00031607,4.747e-05,0.0,0 STARLINK-3837,1 52358U 22045AD  24214.49837992  .00004747  00000-0  31607-3 0  9992,2 52358  53.2146 306.1467 0001238  64.8917 295.2204 15.08844276127449,6917.867,95.437,540.589,538.876,0.0
52358.0,STARLINK-3837,PAYLOAD,2024-08-01 15:08:25,15.08858871,0.0001103,53.2163,305.5504,79.0468,281.0648,0.00058218,8.994e-05,0.0,0 STARLINK-3837,1 52358U 22045AD  24214.63085378  .00008994  00000-0  58218-3 0  9996,2 52358  53.2163 305.5504 0001103  79.0468 281.0648 15.08858871127466,6917.823,95.436,540.451,538.925,0.0
52358.0,STARLINK-3837,PAYLOAD,2024-08-02 13:23:50,15.0883214,0.0001298,53.2161,301.3875,93.613,266.5011,-0.00017879,-3.132e-05,0.0,0 STARLINK-3837,1 52358U 22045AD  24215.55822277 -.00003132  00000-0 -17879-3 0  9994,2 52358  53.2161 301.3875 0001298  93.6130 266.5011 15.08832140127601,6917.904,95.438,540.667,538.871,0.0
52358.0,STARLINK-3837,PAYLOAD,2024-08-03 13:14:37,15.08850668,0.0001516,53.2157,296.932,95.597,264.5195,0.00086341,0.00013484,0.0,0 STARLINK-3837,1 52358U 22045AD  24216.55182482  .00013484  00000-0  86341-3 0  9991,2 52358  53.2157 296.9320 0001516  95.5970 264.5195 15.08850668127758,6917.848,95.437,540.762,538.664,0.0
52358.0,STARLINK-3837,PAYLOAD,2024-08-04 11:30:00,15.08849126,0.0001642,53.2152,292.769,82.2022,277.9156,0.00098799,0.00015475,0.0,0 STARLINK-3837,1 52358U 22045AD  24217.47917785  .00015475  00000-0  98799-3 0  9997,2 52358  53.2152 292.7690 0001642  82.2022 277.9156 15.08849126127895,6917.852,95.437,540.853,538.582,0.0
